MAKERSAT 0              
1 43016U 17073D   18302.77499937  .00000369  00000-0  34502-4 0  9997
2 43016  97.7120 228.3483 0258375 193.0733 166.3698 14.78363232 51013
ASTERIA                 
1 43020U 98067NH  18303.11803044  .00012201  00000-0  14034-3 0  9996
2 43020  51.6425  55.0445 0002367 327.3954  32.6894 15.62448669 53560
DELLINGR (RBLE)         
1 43021U 98067NJ  18303.18054535  .00006083  00000-0  81902-4 0  9997
2 43021  51.6403  58.4094 0002146 316.1491  43.9331 15.59368378 53522
OSIRIS-3U               
1 43027U 98067NL  18303.09951028  .00047745  00000-0  32769-3 0  9992
2 43027  51.6372  43.5242 0004376 321.4149  38.6537 15.74195012 53595
AEROCUBE 7B             
1 43042U 17071F   18302.83809079  .00002266  00000-0  66479-4 0  9999
2 43042  51.6380 105.1489 0005149  40.8115 319.3254 15.39685967 50342
AEROCUBE 7C             
1 43043U 17071G   18302.90288356  .00002364  00000-0  68906-4 0  9993
2 43043  51.6383 104.8394 0005261  42.4288 317.7103 15.39692788 50323
CHEFSAT                 
1 43044U 17071H   18302.87607035  .00004342  00000-0  11274-3 0  9992
2 43044  51.6387 103.2087 0005061  42.0463 318.0910 15.41143974 50342
ASGARDIA 1              
1 43049U 17071N   18303.00270325  .00002653  00000-0  75816-4 0  9997
2 43049  51.6387 104.0174 0002960  64.9382 295.1909 15.39806192 50338
ISARA                   
1 43050U 17071P   18302.96102969  .00003645  00000-0  97051-4 0  9998
2 43050  51.6382 103.0103 0002735  63.6565 296.4700 15.40871100 50342
FAUNA                   
1 43052U 17071R   18302.52339265  .00002960  00000-0  82948-4 0  9991
2 43052  51.6384 106.0796 0002846  60.5249 299.6019 15.39984804 50268
CORVUS BC3              
1 43118U 18004H   18303.15073356  .00000600  00000-0  28994-4 0  9997
2 43118  97.5182   5.9077 0010182 351.9771   8.1300 15.22466869 44249
MICROMAS-2A             
1 43131U 18004W   18303.18266798  .00001457  00000-0  64492-4 0  9993
2 43131  97.5195   6.2028 0009318 355.4702   4.6449 15.23273938 44261
GOMX4-B                 
1 43196U 18015E   18303.23027395  .00000283  00000-0  14652-4 0  9999
2 43196  97.3632  69.5427 0020371  44.1228 316.1631 15.23735471 41095
GOMX4-A                 
1 43197U 18015F   18303.04460918  .00000361  00000-0  17862-4 0  9994
2 43197  97.3649  69.3649 0020608  46.8499  41.9591 15.23807652 41077
1KUNS-PF                
1 43466U 98067NP  18302.76359274  .00011959  00000-0  15859-3 0  9996
2 43466  51.6404  64.6146 0000481 295.1218  64.9724 15.58712733 26667
UBAKUSAT                
1 43467U 98067NQ  18302.92903550  .00008347  00000-0  11647-3 0  9995
2 43467  51.6397  64.2223 0002421 276.2569  83.8147 15.57821379 26694
BATSU-CS1 (IRAZU)       
1 43468U 98067NR  18302.59997165  .00013770  00000-0  17692-3 0  9996
2 43468  51.6398  65.0222 0000410 287.0619  73.0329 15.59406508126639
CUBERRT                 
1 43546U 98067NU  18302.56309205  .00003725  00000-0  58039-4 0  9992
2 43546  51.6404  67.7672 0005756 338.9777  21.0977 15.56668969 16741
TEMPEST-D               
1 43547U 98067NV  18303.17008785  .00003000  00000-0  49885-4 0  9995
2 43547  51.6401  65.0691 0005807 344.2543  15.8267 15.55623778 16515
RAINCUBE                
1 43548U 98067NW  18302.83434766  .00008458  00000-0  12460-3 0  9990
2 43548  51.6396  66.5773 0005849 349.4355  10.6513 15.56314131 16912
HALOSAT                 
1 43549U 98067NX  18302.83487129  .00008601  00000-0  12668-3 0  9992
2 43549  51.6398  66.5814 0005823 351.9886   8.1012 15.56292650 16478
ENDUROSAT ONE           
1 43551U 98067NZ  18302.87270746  .00009450  00000-0  13568-3 0  9997
2 43551  51.6393  66.0832 0006371 357.1625   2.9329 15.56850578 16897
EQUISAT                 
1 43552U 98067PA  18302.81560413  .00008565  00000-0  12480-3 0  9993
2 43552  51.6396  66.4536 0006621 358.1758   1.9208 15.56592261 16844
AEROCUBE 12A            
1 43556U 18046C   18302.85011210  .00000455  00000-0  29262-4 0  9993
2 43556  51.6427  88.1238 0008112 325.5530  34.4923 15.27958235 16105
AEROCUBE 12B            
1 43557U 18046D   18302.98190375  .00000163  00000-0  18755-4 0  9999
2 43557  51.6427  87.5029 0008134 326.0528  33.9930 15.27919663 16074
UITMSAT-1               
1 43589U 98067PD  18302.59967804  .00008501  00000-0  12574-3 0  9997
2 43589  51.6394  68.0074 0005974   5.9721 354.1341 15.56193608 12540
MAYA-1                  
1 43590U 98067PE  18302.59823706  .00008441  00000-0  12479-3 0  9998
2 43590  51.6395  67.9985 0006073   6.6797 353.4274 15.56220591 12475
BHUTAN-1                
1 43591U 98067PF  18302.59625332  .00008274  00000-0  12227-3 0  9999
2 43591  51.6395  67.9854 0006157   8.0285 352.0804 15.56261576 12474
SIRIUSSAT-1             
1 43595U 98067PG  18302.81236823  .00008720  00000-0  13069-3 0  9992
2 43595  51.6395  67.1743 0003571 319.9873  40.0855 15.55798673 11685
SIRIUSSAT-2             
1 43596U 98067PH  18302.56220920  .00008871  00000-0  13358-3 0  9994
2 43596  51.6404  68.5108 0004208 321.9988  38.0706 15.55644048 11649
TANUSHA-3               
1 43597U 98067PJ  18302.81315573  .00010758  00000-0  15880-3 0  9991
2 43597  51.6383  67.1728 0003763 335.5014  24.5798 15.55930193 11689
SURFSAT                 
1 43614U 18070B   18303.20379467  .00002529  00000-0  71088-4 0  9993
2 43614  93.0284 267.9714 0018933 111.1341 249.1935 15.36407360  6855
CP-7 (DAVE)             
1 43615U 18070C   18303.20355826  .00002436  00000-0  68486-4 0  9992
2 43615  93.0286 267.9722 0019008 111.0492 249.2797 15.36410375  6854
ELFIN-B                 
1 43616U 18070D   18302.35478864 -.00000006  00000-0  00000+0 0  9991
2 43616  93.0264 267.5997 0021501 124.2299 236.1416 15.36499373  6727
ELFIN-A                 
1 43617U 18070E   18302.35398216 -.00000006  00000-0  00000+0 0  9994
2 43617  93.0300 267.6370 0020469 120.3565 240.0066 15.36537215  6723
